{
    "CCSDS_OMM_VERS": "3.0",
    "COMMENT": "GENERATED VIA SPACE-TRACK.ORG API",
    "CREATION_DATE": "2025-05-23T14:26:18",
    "ORIGINATOR": "18 SPCS",
    "OBJECT_NAME": "COSMOS 2516 (GLONASS)",
    "OBJECT_ID": "2016-032A",
    "CENTER_NAME": "EARTH",
    "REF_FRAME": "TEME",
    "TIME_SYSTEM": "UTC",
    "MEAN_ELEMENT_THEORY": "SGP4",
    "EPOCH": "2025-05-23T10:16:11.166528",
    "MEAN_MOTION": "2.13106513",
    "ECCENTRICITY": "0.00168210",
    "INCLINATION": "63.8413",
    "RA_OF_ASC_NODE": "204.4450",
    "ARG_OF_PERICENTER": "212.1335",
    "MEAN_ANOMALY": "147.8415",
    "EPHEMERIS_TYPE": "0",
    "CLASSIFICATION_TYPE": "U",
    "NORAD_CAT_ID": "41554",
    "ELEMENT_SET_NO": "999",
    "REV_AT_EPOCH": "6992",
    "BSTAR": "0.00000000000000",
    "MEAN_MOTION_DOT": "0.00000066",
    "MEAN_MOTION_DDOT": "0.0000000000000",
    "SEMIMAJOR_AXIS": "25507.664",
    "PERIOD": "675.718",
    "APOAPSIS": "19172.436",
    "PERIAPSIS": "19086.623",
    "OBJECT_TYPE": "PAYLOAD",
    "RCS_SIZE": "LARGE",
    "COUNTRY_CODE": "CIS",
    "LAUNCH_DATE": "2016-05-29",
    "SITE": "PKMTR",
    "DECAY_DATE": null,
    "FILE": "4736893",
    "GP_ID": "288172732",
    "TLE_LINE0": "0 COSMOS 2516 (GLONASS)",
    "TLE_LINE1": "1 41554U 16032A   25143.42790702  .00000066  00000-0  00000+0 0  9998",
    "TLE_LINE2": "2 41554  63.8413 204.4450 0016821 212.1335 147.8415  2.13106513 69928"
}